[{"OBJECT_NAME":"STARLINK-5473","OBJECT_ID":"2023-021AM","EPOCH":"2026-03-09T16:20:51.896544","MEAN_MOTION":14.98332272,"ECCENTRICITY":0.00032059,"INCLINATION":70.0014,"RA_OF_ASC_NODE":164.464,"ARG_OF_PERICENTER":269.2731,"MEAN_ANOMALY":90.8061,"EPHEMERIS_TYPE":0,"CLASSIFICATION_TYPE":"U","NORAD_CAT_ID":55663,"ELEMENT_SET_NO":999,"REV_AT_EPOCH":16927,"BSTAR":-1.0487234e-5,"MEAN_MOTION_DOT":-2.18e-6,"MEAN_MOTION_DDOT":0},{"OBJECT_NAME":"SITRO-AIS 21","OBJECT_ID":"2024-199E","EPOCH":"2026-03-09T22:38:47.668992","MEAN_MOTION":14.94747634,"ECCENTRICITY":0.00136926,"INCLINATION":97.333,"RA_OF_ASC_NODE":273.2344,"ARG_OF_PERICENTER":42.1108,"MEAN_ANOMALY":318.1163,"EPHEMERIS_TYPE":0,"CLASSIFICATION_TYPE":"U","NORAD_CAT_ID":61739,"ELEMENT_SET_NO":999,"REV_AT_EPOCH":11692,"BSTAR":0.00018121744,"MEAN_MOTION_DOT":1.92e-5,"MEAN_MOTION_DDOT":0}]
